      2.10          N: GNSS NAV DATA                        RINEX VERSION / TYPE
fic2rin                                 02/28/2024 00:17:42 PGM / RUN BY / DATE
                                                            END OF HEADER
3  24  2 27  1 59 44.0  .218515284359D-03  .236468622461D-10  .000000000000D+00
     .200000000000D+01  .548750000000D+02  .431589406003D-08  .227058799131D+01
     .268593430519D-05  .512666208670D-02  .445358455181D-05  .515376732826D+04
     .179984000000D+06  .558793544769D-08 -.158332614261D+01 -.106170773506D-06
     .982694867631D+00  .303000000000D+03  .106546586847D+01 -.805890711440D-08
     .291797868838D-09  .100000000000D+01  .230300000000D+04  .000000000000D+00
     .240000000000D+01  .000000000000D+00  .186264514923D-08  .200000000000D+01
     .172800000000D+06  .400000000000D+01
7  24  2 27  1 59 44.0 -.714804045856D-04 -.886757334229D-11  .000000000000D+00
     .600000000000D+01  .753125000000D+01  .428267839075D-08  .265451126005D+01
     .279396772385D-06  .180208220845D-01  .129491090775D-04  .515367374611D+04
     .179984000000D+06  .968575477600D-07  .509355086398D+00 -.217929482460D-06
     .950685997693D+00  .120250000000D+03 -.214771185936D+01 -.758710174753D-08
     .145363197818D-09  .100000000000D+01  .230300000000D+04  .000000000000D+00
     .240000000000D+01  .000000000000D+00 -.111758708954D-07  .600000000000D+01
     .172800000000D+06  .400000000000D+01
5  24  2 27  1 59 44.0 -.163319054991D-03 -.136424205266D-11  .000000000000D+00
     .300000000000D+02  .516875000000D+02  .468198073758D-08 -.446964828256D+00
     .283122062683D-05  .566601112951D-02  .485964119434D-05  .515356272697D+04
     .179984000000D+06 -.707805156708D-07 -.163350194472D+01 -.372529029846D-08
     .969689922358D+00  .288625000000D+03  .123113945086D+01 -.837320592049D-08
     .274654297597D-09  .100000000000D+01  .230300000000D+04  .000000000000D+00
     .240000000000D+01  .000000000000D+00 -.111758708954D-07  .300000000000D+02
     .172800000000D+06  .400000000000D+01
8  24  2 27  1 59 44.0  .133207067847D-04  .309228198603D-10  .000000000000D+00
     .140000000000D+02 -.601875000000D+02  .491591905347D-08 -.795228199006D+00
    -.310875475407D-05  .939228083007D-02  .612437725067D-05  .515358917236D+04
     .179984000000D+06  .162050127983D-06  .257116537776D+01 -.130385160446D-07
     .954534791794D+00  .253625000000D+03  .328439737976D+00 -.837784897104D-08
    -.356086260993D-09  .100000000000D+01  .230300000000D+04  .000000000000D+00
     .240000000000D+01  .630000000000D+02  .512227416039D-08  .140000000000D+02
     .172800000000D+06  .400000000000D+01
19 24  2 27 15 59 44.0  .446558464319D-03  .534328137292D-11  .000000000000D+00
     .140000000000D+02 -.656562500000D+02  .448732977244D-08  .235473232552D+01
    -.331364572048D-05  .951758574229D-02  .667385756969D-05  .515368756866D+04
     .230384000000D+06  .124797224998D-06  .270839792211D+01  .173225998878D-06
     .969518781423D+00  .254968750000D+03  .248603412683D+01 -.807426489697D-08
    -.597167731576D-09  .100000000000D+01  .230300000000D+04  .000000000000D+00
     .240000000000D+01  .000000000000D+00 -.153668224812D-07  .140000000000D+02
     .223200000000D+06  .400000000000D+01
32 24  2 27 15 59 44.0 -.613706652075D-03 -.170530256582D-11  .000000000000D+00
     .330000000000D+02 -.640312500000D+02  .476305554324D-08  .102946283280D+01
    -.338070094585D-05  .759442709386D-02  .581704080105D-05  .515363970947D+04
     .230384000000D+06 -.875443220139D-07 -.548545754732D+00  .447034835815D-07
     .961513622010D+00  .266937500000D+03 -.216898127359D+01 -.838606359892D-08
    -.339657005220D-09  .100000000000D+01  .230300000000D+04  .000000000000D+00
     .240000000000D+01  .000000000000D+00  .465661287308D-09  .330000000000D+02
     .223200000000D+06  .400000000000D+01
27 24  2 27 15 59 44.0 -.761402770877D-05 -.306954461848D-11  .000000000000D+00
     .420000000000D+02 -.490000000000D+02  .473233997810D-08  .380089210618D+00
    -.239722430706D-05  .124527396401D-01  .557303428650D-05  .515367434502D+04
     .230384000000D+06 -.484287738800D-07  .259643105847D+01  .163912773132D-06
     .963519067648D+00  .271437500000D+03  .764096386493D+00 -.843856578585D-08
    -.501806616545D-09  .100000000000D+01  .230300000000D+04  .000000000000D+00
     .240000000000D+01  .000000000000D+00  .186264514923D-08  .420000000000D+02
     .223200000000D+06  .400000000000D+01
21 24  2 27 15 59 44.0  .133384484798D-03 -.136424205266D-11  .000000000000D+00
     .330000000000D+02 -.115000000000D+02  .438411118726D-08  .210886873793D+00
    -.920146703720D-06  .253103624564D-01  .109672546387D-04  .515371760559D+04
     .230384000000D+06  .199303030968D-06 -.272350912564D+01 -.316649675369D-06
     .962094322953D+00  .174687500000D+03 -.618916087631D+00 -.831534636755D-08
    -.131076888450D-09  .100000000000D+01  .230300000000D+04  .000000000000D+00
     .240000000000D+01  .000000000000D+00 -.102445483208D-07  .330000000000D+02
     .223200000000D+06  .400000000000D+01
17 24  2 27 15 59 44.0  .715580303222D-03 -.136424205266D-11  .000000000000D+00
     .570000000000D+02 -.606250000000D+02  .456947605130D-08  .320430656480D+00
    -.324472784996D-05  .135114857694D-01  .660680234432D-05  .515367484093D+04
     .230384000000D+06 -.141561031342D-06  .266403203917D+01 -.931322574615D-07
     .970322518856D+00  .261312500000D+03 -.133358633560D+01 -.841570769086D-08
    -.524664711534D-09  .100000000000D+01  .230300000000D+04  .000000000000D+00
     .240000000000D+01  .000000000000D+00 -.111758708954D-07  .570000000000D+02
     .223200000000D+06  .400000000000D+01
2  24  2 27 16  0  0.0 -.478812493384D-03  .602540239925D-11  .000000000000D+00
     .186000000000D+03 -.803125000000D+01  .414910139816D-08  .589181376512D+00
    -.594183802605D-06  .161562213907D-01  .116843730211D-04  .515371291351D+04
     .230400000000D+06 -.931322574615D-07 -.271685483355D+01 -.229105353355D-06
     .967817848035D+00  .165375000000D+03 -.123134419210D+01 -.806712174229D-08
    -.156792245312D-09  .100000000000D+01  .230300000000D+04  .000000000000D+00
     .240000000000D+01  .000000000000D+00 -.176951289177D-07  .186000000000D+03
     .223200000000D+06  .400000000000D+01
1  24  2 27 16  0  0.0  .171368010342D-03  .170530256582D-11  .000000000000D+00
     .370000000000D+02  .160312500000D+02  .348978822083D-08 -.206608599421D+01
     .743195414543D-06  .127997759264D-01  .114720314741D-04  .515400540924D+04
     .230400000000D+06  .154599547386D-06 -.261219259784D+01 -.126659870148D-06
     .990867419982D+00  .172468750000D+03  .998989282222D+00 -.729887545603D-08
     .885751180806D-10  .100000000000D+01  .230300000000D+04  .000000000000D+00
     .340000000000D+01  .630000000000D+02  .512227416039D-08  .370000000000D+02
     .223200000000D+06  .400000000000D+01
3  24  2 27 16  0  0.0  .219704117626D-03  .236468622461D-10  .000000000000D+00
     .230000000000D+02  .505937500000D+02  .417481675502D-08 -.294250302036D+01
     .266171991825D-05  .512715033256D-02  .519119203091D-05  .515376611710D+04
     .230400000000D+06  .558793544769D-08 -.158373437429D+01  .204890966415D-07
     .982714429772D+00  .291093750000D+03  .106537777301D+01 -.791711549392D-08
     .401802450971D-09  .100000000000D+01  .230300000000D+04  .000000000000D+00
     .240000000000D+01  .000000000000D+00  .186264514923D-08  .230000000000D+02
     .223200000000D+06  .400000000000D+01
